[{"OBJECT_NAME":"STARLINK-31025","OBJECT_ID":"2023-203S","EPOCH":"2025-07-28T09:21:57.109248","MEAN_MOTION":15.25903896,"ECCENTRICITY":0.0002329,"INCLINATION":43,"RA_OF_ASC_NODE":252.3828,"ARG_OF_PERICENTER":275.216,"MEAN_ANOMALY":84.8426,"EPHEMERIS_TYPE":0,"CLASSIFICATION_TYPE":"U","NORAD_CAT_ID":58634,"ELEMENT_SET_NO":999,"REV_AT_EPOCH":9050,"BSTAR":0.00014571,"MEAN_MOTION_DOT":3.555e-5,"MEAN_MOTION_DDOT":0},{"OBJECT_NAME":"STARLINK-31018","OBJECT_ID":"2023-203T","EPOCH":"2025-07-28T10:50:04.206912","MEAN_MOTION":15.27575039,"ECCENTRICITY":0.0001562,"INCLINATION":43.0031,"RA_OF_ASC_NODE":253.7734,"ARG_OF_PERICENTER":268.1073,"MEAN_ANOMALY":91.9599,"EPHEMERIS_TYPE":0,"CLASSIFICATION_TYPE":"U","NORAD_CAT_ID":58635,"ELEMENT_SET_NO":999,"REV_AT_EPOCH":9049,"BSTAR":3.4499e-5,"MEAN_MOTION_DOT":6.87e-6,"MEAN_MOTION_DDOT":0},{"OBJECT_NAME":"STARLINK-31008","OBJECT_ID":"2023-203U","EPOCH":"2025-07-28T04:37:08.590656","MEAN_MOTION":15.27572945,"ECCENTRICITY":0.000108,"INCLINATION":43.0012,"RA_OF_ASC_NODE":255.2682,"ARG_OF_PERICENTER":246.417,"MEAN_ANOMALY":113.6569,"EPHEMERIS_TYPE":0,"CLASSIFICATION_TYPE":"U","NORAD_CAT_ID":58636,"ELEMENT_SET_NO":999,"REV_AT_EPOCH":9045,"BSTAR":1.3871e-5,"MEAN_MOTION_DOT":1.2e-6,"MEAN_MOTION_DDOT":0},{"OBJECT_NAME":"STARLINK-31077","OBJECT_ID":"2023-203V","EPOCH":"2025-07-27T20:37:06.552768","MEAN_MOTION":15.27575913,"ECCENTRICITY":0.0001465,"INCLINATION":43.0024,"RA_OF_ASC_NODE":257.0647,"ARG_OF_PERICENTER":272.4077,"MEAN_ANOMALY":87.6607,"EPHEMERIS_TYPE":0,"CLASSIFICATION_TYPE":"U","NORAD_CAT_ID":58637,"ELEMENT_SET_NO":999,"REV_AT_EPOCH":9040,"BSTAR":2.2946e-5,"MEAN_MOTION_DOT":3.69e-6,"MEAN_MOTION_DDOT":0},{"OBJECT_NAME":"STARLINK-31078","OBJECT_ID":"2023-203W","EPOCH":"2025-07-28T12:13:07.593888","MEAN_MOTION":15.27568026,"ECCENTRICITY":0.0001214,"INCLINATION":43.0029,"RA_OF_ASC_NODE":253.3425,"ARG_OF_PERICENTER":280.0524,"MEAN_ANOMALY":80.0191,"EPHEMERIS_TYPE":0,"CLASSIFICATION_TYPE":"U","NORAD_CAT_ID":58638,"ELEMENT_SET_NO":999,"REV_AT_EPOCH":9051,"BSTAR":0.00010936,"MEAN_MOTION_DOT":2.747e-5,"MEAN_MOTION_DDOT":0},{"OBJECT_NAME":"STARLINK-31070","OBJECT_ID":"2023-203X","EPOCH":"2025-07-28T04:42:41.482080","MEAN_MOTION":15.27578364,"ECCENTRICITY":0.0001288,"INCLINATION":43.0004,"RA_OF_ASC_NODE":255.2946,"ARG_OF_PERICENTER":247.6463,"MEAN_ANOMALY":112.4252,"EPHEMERIS_TYPE":0,"CLASSIFICATION_TYPE":"U","NORAD_CAT_ID":58639,"ELEMENT_SET_NO":999,"REV_AT_EPOCH":9045,"BSTAR":4.2739e-5,"MEAN_MOTION_DOT":9.14e-6,"MEAN_MOTION_DDOT":0},{"OBJECT_NAME":"STARLINK-31090","OBJECT_ID":"2023-203Y","EPOCH":"2025-07-28T04:10:33.839328","MEAN_MOTION":15.27574574,"ECCENTRICITY":0.0001516,"INCLINATION":43.0004,"RA_OF_ASC_NODE":247.346,"ARG_OF_PERICENTER":273.6853,"MEAN_ANOMALY":86.3826,"EPHEMERIS_TYPE":0,"CLASSIFICATION_TYPE":"U","NORAD_CAT_ID":58640,"ELEMENT_SET_NO":999,"REV_AT_EPOCH":9055,"BSTAR":-4.7671e-5,"MEAN_MOTION_DOT":-1.573e-5,"MEAN_MOTION_DDOT":0},{"OBJECT_NAME":"STARLINK-31113","OBJECT_ID":"2023-211B","EPOCH":"2025-07-28T04:31:52.887648","MEAN_MOTION":15.27578185,"ECCENTRICITY":0.0001849,"INCLINATION":43.0024,"RA_OF_ASC_NODE":272.8393,"ARG_OF_PERICENTER":274.8857,"MEAN_ANOMALY":85.1784,"EPHEMERIS_TYPE":0,"CLASSIFICATION_TYPE":"U","NORAD_CAT_ID":58668,"ELEMENT_SET_NO":999,"REV_AT_EPOCH":8941,"BSTAR":1.7981e-5,"MEAN_MOTION_DOT":2.32e-6,"MEAN_MOTION_DDOT":0},{"OBJECT_NAME":"STARLINK-31128","OBJECT_ID":"2023-211C","EPOCH":"2025-07-27T21:05:09.262752","MEAN_MOTION":15.2757002,"ECCENTRICITY":0.0001198,"INCLINATION":43.0012,"RA_OF_ASC_NODE":274.8067,"ARG_OF_PERICENTER":293.5771,"MEAN_ANOMALY":66.4955,"EPHEMERIS_TYPE":0,"CLASSIFICATION_TYPE":"U","NORAD_CAT_ID":58669,"ELEMENT_SET_NO":999,"REV_AT_EPOCH":8808,"BSTAR":-1.1511e-5,"MEAN_MOTION_DOT":-5.79e-6,"MEAN_MOTION_DDOT":0},{"OBJECT_NAME":"STARLINK-31083","OBJECT_ID":"2023-211D","EPOCH":"2025-07-28T12:17:06.558144","MEAN_MOTION":15.27578916,"ECCENTRICITY":0.0002725,"INCLINATION":43.003,"RA_OF_ASC_NODE":270.9644,"ARG_OF_PERICENTER":276.6522,"MEAN_ANOMALY":83.402,"EPHEMERIS_TYPE":0,"CLASSIFICATION_TYPE":"U","NORAD_CAT_ID":58670,"ELEMENT_SET_NO":999,"REV_AT_EPOCH":8936,"BSTAR":-1.3701e-5,"MEAN_MOTION_DOT":-6.4e-6,"MEAN_MOTION_DDOT":0},{"OBJECT_NAME":"STARLINK-30828","OBJECT_ID":"2023-211E","EPOCH":"2025-07-28T11:27:21.987648","MEAN_MOTION":15.27584893,"ECCENTRICITY":0.0001418,"INCLINATION":42.9984,"RA_OF_ASC_NODE":271.5681,"ARG_OF_PERICENTER":263.6904,"MEAN_ANOMALY":96.3786,"EPHEMERIS_TYPE":0,"CLASSIFICATION_TYPE":"U","NORAD_CAT_ID":58671,"ELEMENT_SET_NO":999,"REV_AT_EPOCH":8897,"BSTAR":-7.0684e-5,"MEAN_MOTION_DOT":-2.207e-5,"MEAN_MOTION_DDOT":0},{"OBJECT_NAME":"STARLINK-31104","OBJECT_ID":"2023-211F","EPOCH":"2025-07-28T04:20:46.625280","MEAN_MOTION":15.27579192,"ECCENTRICITY":0.0001524,"INCLINATION":43.0035,"RA_OF_ASC_NODE":272.7788,"ARG_OF_PERICENTER":269.1908,"MEAN_ANOMALY":90.8769,"EPHEMERIS_TYPE":0,"CLASSIFICATION_TYPE":"U","NORAD_CAT_ID":58672,"ELEMENT_SET_NO":999,"REV_AT_EPOCH":8941,"BSTAR":2.4257e-5,"MEAN_MOTION_DOT":4.05e-6,"MEAN_MOTION_DDOT":0},{"OBJECT_NAME":"STARLINK-31131","OBJECT_ID":"2023-211G","EPOCH":"2025-07-28T04:33:56.664288","MEAN_MOTION":15.27571048,"ECCENTRICITY":9.83e-5,"INCLINATION":42.9993,"RA_OF_ASC_NODE":262.3297,"ARG_OF_PERICENTER":299.0372,"MEAN_ANOMALY":61.0381,"EPHEMERIS_TYPE":0,"CLASSIFICATION_TYPE":"U","NORAD_CAT_ID":58673,"ELEMENT_SET_NO":999,"REV_AT_EPOCH":8953,"BSTAR":-4.9148e-6,"MEAN_MOTION_DOT":-3.97e-6,"MEAN_MOTION_DDOT":0},{"OBJECT_NAME":"STARLINK-31124","OBJECT_ID":"2023-211H","EPOCH":"2025-07-27T11:21:42.249024","MEAN_MOTION":15.27590333,"ECCENTRICITY":0.000164,"INCLINATION":42.9991,"RA_OF_ASC_NODE":276.9307,"ARG_OF_PERICENTER":272.8441,"MEAN_ANOMALY":87.2223,"EPHEMERIS_TYPE":0,"CLASSIFICATION_TYPE":"U","NORAD_CAT_ID":58674,"ELEMENT_SET_NO":999,"REV_AT_EPOCH":8802,"BSTAR":0.00030349,"MEAN_MOTION_DOT":8.101e-5,"MEAN_MOTION_DDOT":0},{"OBJECT_NAME":"STARLINK-31126","OBJECT_ID":"2023-211J","EPOCH":"2025-07-28T04:15:13.732992","MEAN_MOTION":15.275747,"ECCENTRICITY":0.0001326,"INCLINATION":43.0012,"RA_OF_ASC_NODE":272.7375,"ARG_OF_PERICENTER":215.3405,"MEAN_ANOMALY":144.7359,"EPHEMERIS_TYPE":0,"CLASSIFICATION_TYPE":"U","NORAD_CAT_ID":58675,"ELEMENT_SET_NO":999,"REV_AT_EPOCH":8930,"BSTAR":-2.8432e-6,"MEAN_MOTION_DOT":-3.4e-6,"MEAN_MOTION_DDOT":0},{"OBJECT_NAME":"STARLINK-31066","OBJECT_ID":"2023-211K","EPOCH":"2025-07-28T03:55:40.173888","MEAN_MOTION":15.02534493,"ECCENTRICITY":0.0001341,"INCLINATION":43.0051,"RA_OF_ASC_NODE":14.6984,"ARG_OF_PERICENTER":262.2074,"MEAN_ANOMALY":97.8616,"EPHEMERIS_TYPE":0,"CLASSIFICATION_TYPE":"U","NORAD_CAT_ID":58676,"ELEMENT_SET_NO":999,"REV_AT_EPOCH":8821,"BSTAR":9.9526e-6,"MEAN_MOTION_DOT":-6.9e-7,"MEAN_MOTION_DDOT":0},{"OBJECT_NAME":"STARLINK-31058","OBJECT_ID":"2023-211L","EPOCH":"2025-07-27T20:50:20.617152","MEAN_MOTION":15.27581822,"ECCENTRICITY":0.0001555,"INCLINATION":42.9986,"RA_OF_ASC_NODE":274.732,"ARG_OF_PERICENTER":282.6425,"MEAN_ANOMALY":77.4253,"EPHEMERIS_TYPE":0,"CLASSIFICATION_TYPE":"U","NORAD_CAT_ID":58677,"ELEMENT_SET_NO":999,"REV_AT_EPOCH":8808,"BSTAR":9.0742e-5,"MEAN_MOTION_DOT":2.236e-5,"MEAN_MOTION_DDOT":0},{"OBJECT_NAME":"STARLINK-31125","OBJECT_ID":"2023-211M","EPOCH":"2025-07-28T05:14:26.330784","MEAN_MOTION":15.27575507,"ECCENTRICITY":7.09e-5,"INCLINATION":42.9932,"RA_OF_ASC_NODE":273.0575,"ARG_OF_PERICENTER":263.4766,"MEAN_ANOMALY":96.6005,"EPHEMERIS_TYPE":0,"CLASSIFICATION_TYPE":"U","NORAD_CAT_ID":58678,"ELEMENT_SET_NO":999,"REV_AT_EPOCH":8930,"BSTAR":-1.2262e-5,"MEAN_MOTION_DOT":-5.99e-6,"MEAN_MOTION_DDOT":0},{"OBJECT_NAME":"STARLINK-31110","OBJECT_ID":"2023-211N","EPOCH":"2025-07-28T11:03:18.613440","MEAN_MOTION":15.27573038,"ECCENTRICITY":0.0001052,"INCLINATION":42.9985,"RA_OF_ASC_NODE":271.4369,"ARG_OF_PERICENTER":263.2731,"MEAN_ANOMALY":96.8001,"EPHEMERIS_TYPE":0,"CLASSIFICATION_TYPE":"U","NORAD_CAT_ID":58679,"ELEMENT_SET_NO":999,"REV_AT_EPOCH":8944,"BSTAR":-2.7258e-5,"MEAN_MOTION_DOT":-1.012e-5,"MEAN_MOTION_DDOT":0},{"OBJECT_NAME":"STARLINK-31112","OBJECT_ID":"2023-211P","EPOCH":"2025-07-28T04:57:48.046176","MEAN_MOTION":15.27556829,"ECCENTRICITY":0.0001086,"INCLINATION":42.9985,"RA_OF_ASC_NODE":272.9696,"ARG_OF_PERICENTER":274.325,"MEAN_ANOMALY":85.7478,"EPHEMERIS_TYPE":0,"CLASSIFICATION_TYPE":"U","NORAD_CAT_ID":58680,"ELEMENT_SET_NO":999,"REV_AT_EPOCH":8931,"BSTAR":-8.9079e-5,"MEAN_MOTION_DOT":-2.71e-5,"MEAN_MOTION_DDOT":0},{"OBJECT_NAME":"STARLINK-31147","OBJECT_ID":"2023-211Q","EPOCH":"2025-07-28T05:19:59.757888","MEAN_MOTION":15.27573953,"ECCENTRICITY":0.0001696,"INCLINATION":42.9987,"RA_OF_ASC_NODE":273.0901,"ARG_OF_PERICENTER":344.1273,"MEAN_ANOMALY":15.9525,"EPHEMERIS_TYPE":0,"CLASSIFICATION_TYPE":"U","NORAD_CAT_ID":58681,"ELEMENT_SET_NO":999,"REV_AT_EPOCH":8940,"BSTAR":-1.033e-5,"MEAN_MOTION_DOT":-5.46e-6,"MEAN_MOTION_DDOT":0},{"OBJECT_NAME":"STARLINK-31144","OBJECT_ID":"2023-211R","EPOCH":"2025-07-28T10:35:33.199872","MEAN_MOTION":15.27579972,"ECCENTRICITY":0.0001491,"INCLINATION":42.9991,"RA_OF_ASC_NODE":271.2895,"ARG_OF_PERICENTER":266.0708,"MEAN_ANOMALY":93.9974,"EPHEMERIS_TYPE":0,"CLASSIFICATION_TYPE":"U","NORAD_CAT_ID":58682,"ELEMENT_SET_NO":999,"REV_AT_EPOCH":8945,"BSTAR":1.4214e-5,"MEAN_MOTION_DOT":1.29e-6,"MEAN_MOTION_DDOT":0},{"OBJECT_NAME":"STARLINK-31095","OBJECT_ID":"2023-211S","EPOCH":"2025-07-28T05:38:29.909760","MEAN_MOTION":15.2757369,"ECCENTRICITY":0.0001307,"INCLINATION":43.003,"RA_OF_ASC_NODE":273.1855,"ARG_OF_PERICENTER":279.0655,"MEAN_ANOMALY":81.0048,"EPHEMERIS_TYPE":0,"CLASSIFICATION_TYPE":"U","NORAD_CAT_ID":58683,"ELEMENT_SET_NO":999,"REV_AT_EPOCH":8940,"BSTAR":4.5311e-6,"MEAN_MOTION_DOT":-1.37e-6,"MEAN_MOTION_DDOT":0}]
